[{"OBJECT_NAME":"STARLINK-31814","OBJECT_ID":"2024-093W","EPOCH":"2026-03-09T10:46:34.818240","MEAN_MOTION":15.27567041,"ECCENTRICITY":0.00017412,"INCLINATION":43.0057,"RA_OF_ASC_NODE":210.6688,"ARG_OF_PERICENTER":271.9485,"MEAN_ANOMALY":88.1168,"EPHEMERIS_TYPE":0,"CLASSIFICATION_TYPE":"U","NORAD_CAT_ID":59802,"ELEMENT_SET_NO":999,"REV_AT_EPOCH":10265,"BSTAR":-0.00011881057,"MEAN_MOTION_DOT":-3.529e-5,"MEAN_MOTION_DDOT":0},{"OBJECT_NAME":"ELECTRON KICK STAGE R\/B","OBJECT_ID":"2024-047B","EPOCH":"2026-03-09T21:11:54.433824","MEAN_MOTION":15.27307897,"ECCENTRICITY":0.00092426,"INCLINATION":97.6338,"RA_OF_ASC_NODE":46.9382,"ARG_OF_PERICENTER":20.6031,"MEAN_ANOMALY":339.5579,"EPHEMERIS_TYPE":0,"CLASSIFICATION_TYPE":"U","NORAD_CAT_ID":59225,"ELEMENT_SET_NO":999,"REV_AT_EPOCH":10999,"BSTAR":0.00091229405,"MEAN_MOTION_DOT":0.00024409,"MEAN_MOTION_DDOT":0}]
